ORBCOMM FM115 [+]       
1 41186U 15081H   23256.27357904  .00001438  00000+0  33314-3 0  9992
2 41186  46.9985 210.5399 0001302 321.5384  38.5409 14.59885451413753
ORBCOMM FM108 [+]       
1 41187U 15081J   23256.67870637  .00000927  00000+0  24697-3 0  9996
2 41187  47.0040 255.4419 0003367 262.7665  97.2837 14.55882571413102
ORBCOMM FM117 [+]       
1 41188U 15081K   23256.78106764  .00000917  00000+0  24471-3 0  9991
2 41188  47.0001 253.9277 0004137 269.0968  90.9442 14.55878508413160
ORBCOMM FM116 [+]       
1 41189U 15081L   23256.70253086  .00001526  00000+0  38212-3 0  9999
2 41189  47.0038 344.1056 0002172 321.0560  39.0168 14.55876660411965
